{"type": "FeatureCollection", "features": [ {"type": "Feature", "properties": {"norad_id": 32342, "name": "FENGYUN 1C DEB", "group": "fengyun-1c-debris", "lat": -67.56823229955255, "lon": 154.82077625500096, "alt_km": 855.8154530130869, "timestamp": "2025-12-13T22:39:29.996520+00:00", "meta": {"OBJECT_NAME": "FENGYUN 1C DEB", "OBJECT_ID": "1999-025CYK", "EPOCH": "2025-12-12T19:09:05.479776", "MEAN_MOTION": 14.13398793, "ECCENTRICITY": 0.00074992, "INCLINATION": 98.6704, "RA_OF_ASC_NODE": 355.4028, "ARG_OF_PERICENTER": 351.2871, "MEAN_ANOMALY": 189.54, "EPHEMERIS_TYPE": 0, "CLASSIFICATION_TYPE": "U", "NORAD_CAT_ID": 32342, "ELEMENT_SET_NO": 999, "REV_AT_EPOCH": 93718, "BSTAR": 0.00015867597, "MEAN_MOTION_DOT": 2.56e-06, "MEAN_MOTION_DDOT": 0}, "tle": {"line1": "1 32342U 99025CYK 25346.79798009  .00000256  00000+0  15868-3 0  9991", "line2": "2 32342  98.6704 355.4028 0007499 351.2871 189.5400 14.13398793937186"}}, "geometry": {"type": "Point", "coordinates": [154.82077625500096, -67.56823229955255]}}, {"type": "Feature", "properties": {"norad_id": 32343, "name": "FENGYUN 1C DEB", "group": "fengyun-1c-debris", "lat": 81.13496816027572, "lon": -129.09448493027753, "alt_km": 725.0352565634148, "timestamp": "2025-12-13T22:39:29.996540+00:00", "meta": {"OBJECT_NAME": "FENGYUN 1C DEB", "OBJECT_ID": "1999-025CYL", "EPOCH": "2025-12-13T05:18:56.833632", "MEAN_MOTION": 14.19848796, "ECCENTRICITY": 0.01521973, "INCLINATION": 98.6084, "RA_OF_ASC_NODE": 333.9812, "ARG_OF_PERICENTER": 126.2805, "MEAN_ANOMALY": 235.2541, "EPHEMERIS_TYPE": 0, "CLASSIFICATION_TYPE": "U", "NORAD_CAT_ID": 32343, "ELEMENT_SET_NO": 999, "REV_AT_EPOCH": 64720, "BSTAR": 0.00041342117, "MEAN_MOTION_DOT": 9.43e-06, "MEAN_MOTION_DDOT": 0}, "tle": {"line1": "1 32343U 99025CYL 25347.22149113  .00000943  00000+0  41342-3 0  9996", "line2": "2 32343  98.6084 333.9812 0152197 126.2805 235.2541 14.19848796647208"}}, "geometry": {"type": "Point", "coordinates": [-129.09448493027753, 81.13496816027572]}}, {"type": "Feature", "properties": {"norad_id": 32350, "name": "FENGYUN 1C DEB", "group": "fengyun-1c-debris", "lat": 30.91076306516839, "lon": -142.36005708145584, "alt_km": 871.4479417836919, "timestamp": "2025-12-13T22:39:29.996552+00:00", "meta": {"OBJECT_NAME": "FENGYUN 1C DEB", "OBJECT_ID": "1999-025CYT", "EPOCH": "2025-12-12T21:09:28.573344", "MEAN_MOTION": 14.52570236, "ECCENTRICITY": 0.02669734, "INCLINATION": 98.2296, "RA_OF_ASC_NODE": 31.6254, "ARG_OF_PERICENTER": 298.1573, "MEAN_ANOMALY": 59.2885, "EPHEMERIS_TYPE": 0, "CLASSIFICATION_TYPE": "U", "NORAD_CAT_ID": 32350, "ELEMENT_SET_NO": 999, "REV_AT_EPOCH": 97529, "BSTAR": 0.00099504636, "MEAN_MOTION_DOT": 6.458e-05, "MEAN_MOTION_DDOT": 0}, "tle": {"line1": "1 32350U 99025CYT 25346.88158071  .00006458  00000+0  99505-3 0  9999", "line2": "2 32350  98.2296  31.6254 0266973 298.1573  59.2885 14.52570236975294"}}, "geometry": {"type": "Point", "coordinates": [-142.36005708145584, 30.91076306516839]}}, {"type": "Feature", "properties": {"norad_id": 32352, "name": "FENGYUN 1C DEB", "group": "fengyun-1c-debris", "lat": -24.727154297146217, "lon": 83.9058996472498, "alt_km": 689.8660299035919, "timestamp": "2025-12-13T22:39:29.996562+00:00", "meta": {"OBJECT_NAME": "FENGYUN 1C DEB", "OBJECT_ID": "1999-025CYV", "EPOCH": "2025-12-12T12:23:45.025440", "MEAN_MOTION": 14.41420955, "ECCENTRICITY": 0.01220074, "INCLINATION": 98.7776, "RA_OF_ASC_NODE": 266.5198, "ARG_OF_PERICENTER": 171.7067, "MEAN_ANOMALY": 188.6176, "EPHEMERIS_TYPE": 0, "CLASSIFICATION_TYPE": "U", "NORAD_CAT_ID": 32352, "ELEMENT_SET_NO": 999, "REV_AT_EPOCH": 65266, "BSTAR": 0.00034517758, "MEAN_MOTION_DOT": 1.172e-05, "MEAN_MOTION_DDOT": 0}, "tle": {"line1": "1 32352U 99025CYV 25346.51649335  .00001172  00000+0  34518-3 0  9990", "line2": "2 32352  98.7776 266.5198 0122007 171.7067 188.6176 14.41420955652666"}}, "geometry": {"type": "Point", "coordinates": [83.9058996472498, -24.727154297146217]}}, {"type": "Feature", "properties": {"norad_id": 32353, "name": "FENGYUN 1C DEB", "group": "fengyun-1c-debris", "lat": -32.52815639148141, "lon": -21.354387839133633, "alt_km": 799.285392150312, "timestamp": "2025-12-13T22:39:29.996572+00:00", "meta": {"OBJECT_NAME": "FENGYUN 1C DEB", "OBJECT_ID": "1999-025CYW", "EPOCH": "2025-12-09T06:27:26.911008", "MEAN_MOTION": 14.03762056, "ECCENTRICITY": 0.0125696, "INCLINATION": 98.922, "RA_OF_ASC_NODE": 159.8067, "ARG_OF_PERICENTER": 208.8783, "MEAN_ANOMALY": 150.5388, "EPHEMERIS_TYPE": 0, "CLASSIFICATION_TYPE": "U", "NORAD_CAT_ID": 32353, "ELEMENT_SET_NO": 999, "REV_AT_EPOCH": 63145, "BSTAR": 0.00432, "MEAN_MOTION_DOT": 7.257e-05, "MEAN_MOTION_DDOT": 0}, "tle": {"line1": "1 32353U 99025CYW 25343.26906147  .00007257  00000+0  43200-2 0  9994", "line2": "2 32353  98.9220 159.8067 0125696 208.8783 150.5388 14.03762056631452"}}, "geometry": {"type": "Point", "coordinates": [-21.354387839133633, -32.52815639148141]}}, {"type": "Feature", "properties": {"norad_id": 32355, "name": "FENGYUN 1C DEB", "group": "fengyun-1c-debris", "lat": 50.25662003443305, "lon": -95.67884786245452, "alt_km": 430.6022189392079, "timestamp": "2025-12-13T22:39:29.996583+00:00", "meta": {"OBJECT_NAME": "FENGYUN 1C DEB", "OBJECT_ID": "1999-025CYY", "EPOCH": "2025-11-30T13:45:12.852288", "MEAN_MOTION": 15.2698689, "ECCENTRICITY": 0.00340494, "INCLINATION": 100.3462, "RA_OF_ASC_NODE": 258.4114, "ARG_OF_PERICENTER": 91.868, "MEAN_ANOMALY": 83.2659, "EPHEMERIS_TYPE": 0, "CLASSIFICATION_TYPE": "U", "NORAD_CAT_ID": 32355, "ELEMENT_SET_NO": 999, "REV_AT_EPOCH": 64804, "BSTAR": 0.0114101, "MEAN_MOTION_DOT": 0.00320062, "MEAN_MOTION_DDOT": 0}, "tle": {"line1": "1 32355U 99025CYY 25334.57306542  .00320062  00000+0  11410-1 0  9992", "line2": "2 32355 100.3462 258.4114 0034049  91.8680  83.2659 15.26986890648042"}}, "geometry": {"type": "Point", "coordinates": [-95.67884786245452, 50.25662003443305]}}, {"type": "Feature", "properties": {"norad_id": 32356, "name": "FENGYUN 1C DEB", "group": "fengyun-1c-debris", "lat": 43.47999222563615, "lon": -161.51256557661642, "alt_km": 800.9080876810103, "timestamp": "2025-12-13T22:39:29.996593+00:00", "meta": {"OBJECT_NAME": "FENGYUN 1C DEB", "OBJECT_ID": "1999-025CYZ", "EPOCH": "2025-12-13T01:55:09.297408", "MEAN_MOTION": 14.03385152, "ECCENTRICITY": 0.01253415, "INCLINATION": 102.4956, "RA_OF_ASC_NODE": 209.4441, "ARG_OF_PERICENTER": 14.7761, "MEAN_ANOMALY": 345.7004, "EPHEMERIS_TYPE": 0, "CLASSIFICATION_TYPE": "U", "NORAD_CAT_ID": 32356, "ELEMENT_SET_NO": 999, "REV_AT_EPOCH": 68392, "BSTAR": 0.0030724906, "MEAN_MOTION_DOT": 5.081e-05, "MEAN_MOTION_DDOT": 0}, "tle": {"line1": "1 32356U 99025CYZ 25347.07996872  .00005081  00000+0  30725-2 0  9995", "line2": "2 32356 102.4956 209.4441 0125341  14.7761 345.7004 14.03385152683927"}}, "geometry": {"type": "Point", "coordinates": [-161.51256557661642, 43.47999222563615]}}, {"type": "Feature", "properties": {"norad_id": 32357, "name": "FENGYUN 1C DEB", "group": "fengyun-1c-debris", "lat": 77.89586375584757, "lon": -19.451432283973563, "alt_km": 1058.9436061590195, "timestamp": "2025-12-13T22:39:29.996603+00:00", "meta": {"OBJECT_NAME": "FENGYUN 1C DEB", "OBJECT_ID": "1999-025CZA", "EPOCH": "2025-12-10T21:24:56.060928", "MEAN_MOTION": 13.68648382, "ECCENTRICITY": 0.0490892, "INCLINATION": 98.8572, "RA_OF_ASC_NODE": 24.3741, "ARG_OF_PERICENTER": 192.425, "MEAN_ANOMALY": 346.0356, "EPHEMERIS_TYPE": 0, "CLASSIFICATION_TYPE": "U", "NORAD_CAT_ID": 32357, "ELEMENT_SET_NO": 999, "REV_AT_EPOCH": 66762, "BSTAR": 0.0050246, "MEAN_MOTION_DOT": 0.00010057, "MEAN_MOTION_DDOT": 0}, "tle": {"line1": "1 32357U 99025CZA 25344.89231552  .00010057  00000+0  50246-2 0  9999", "line2": "2 32357  98.8572  24.3741 0490892 192.4250 346.0356 13.68648382667620"}}, "geometry": {"type": "Point", "coordinates": [-19.451432283973563, 77.89586375584757]}}, {"type": "Feature", "properties": {"norad_id": 32361, "name": "FENGYUN 1C DEB", "group": "fengyun-1c-debris", "lat": -4.088162852082761, "lon": 47.5827506296292, "alt_km": 702.3481335487504, "timestamp": "2025-12-13T22:39:29.996613+00:00", "meta": {"OBJECT_NAME": "FENGYUN 1C DEB", "OBJECT_ID": "1999-025CZE", "EPOCH": "2025-12-11T02:49:28.485984", "MEAN_MOTION": 14.51000416, "ECCENTRICITY": 0.004611, "INCLINATION": 98.861, "RA_OF_ASC_NODE": 43.9683, "ARG_OF_PERICENTER": 49.333, "MEAN_ANOMALY": 311.1857, "EPHEMERIS_TYPE": 0, "CLASSIFICATION_TYPE": "U", "NORAD_CAT_ID": 32361, "ELEMENT_SET_NO": 999, "REV_AT_EPOCH": 96321, "BSTAR": 0.002935715, "MEAN_MOTION_DOT": 0.0001174, "MEAN_MOTION_DDOT": 0}, "tle": {"line1": "1 32361U 99025CZE 25345.11769081  .00011740  00000+0  29357-2 0  9992", "line2": "2 32361  98.8610  43.9683 0046110  49.3330 311.1857 14.51000416963215"}}, "geometry": {"type": "Point", "coordinates": [47.5827506296292, -4.088162852082761]}}, {"type": "Feature", "properties": {"norad_id": 32362, "name": "FENGYUN 1C DEB", "group": "fengyun-1c-debris", "lat": 1.1028386952752718, "lon": -41.05245040032724, "alt_km": 975.4084712938766, "timestamp": "2025-12-13T22:39:29.996624+00:00", "meta": {"OBJECT_NAME": "FENGYUN 1C DEB", "OBJECT_ID": "1999-025CZF", "EPOCH": "2025-12-07T15:23:15.342720", "MEAN_MOTION": 13.65140835, "ECCENTRICITY": 0.02754875, "INCLINATION": 99.8447, "RA_OF_ASC_NODE": 312.7403, "ARG_OF_PERICENTER": 298.1645, "MEAN_ANOMALY": 59.1918, "EPHEMERIS_TYPE": 0, "CLASSIFICATION_TYPE": "U", "NORAD_CAT_ID": 32362, "ELEMENT_SET_NO": 999, "REV_AT_EPOCH": 91060, "BSTAR": 0.0060602721, "MEAN_MOTION_DOT": 6.323e-05, "MEAN_MOTION_DDOT": 0}, "tle": {"line1": "1 32362U 99025CZF 25341.64114980  .00006323  00000+0  60603-2 0  9999", "line2": "2 32362  99.8447 312.7403 0275487 298.1645  59.1918 13.65140835910602"}}, "geometry": {"type": "Point", "coordinates": [-41.05245040032724, 1.1028386952752718]}}]}